{"fetched_at":"2026-07-13T07:48:33.585Z","source":"https://celestrak.org/NORAD/elements/gp.php?NAME=NUSAT&FORMAT=JSON","constellation":"satellogic","records":[{"OBJECT_NAME":"NUSAT-47","OBJECT_ID":"2025-276CF","EPOCH":"2026-07-12T18:22:24.021984","CLASSIFICATION_TYPE":"U","MEAN_MOTION":15.20569288,"ECCENTRICITY":0.0000216,"INCLINATION":97.4188,"RA_OF_ASC_NODE":266.9693,"ARG_OF_PERICENTER":225.9765,"MEAN_ANOMALY":134.1452,"EPHEMERIS_TYPE":0,"NORAD_CAT_ID":66743,"ELEMENT_SET_NO":999,"REV_AT_EPOCH":3431,"BSTAR":0.00017287,"MEAN_MOTION_DOT":0.00003717,"MEAN_MOTION_DDOT":0},{"OBJECT_NAME":"NUSAT-53 (JANE GOODALL)","OBJECT_ID":"2026-067S","EPOCH":"2026-07-12T19:55:09.210144","CLASSIFICATION_TYPE":"U","MEAN_MOTION":15.18835787,"ECCENTRICITY":0.0000903,"INCLINATION":97.4569,"RA_OF_ASC_NODE":151.9809,"ARG_OF_PERICENTER":356.3986,"MEAN_ANOMALY":3.7241,"EPHEMERIS_TYPE":0,"NORAD_CAT_ID":68432,"ELEMENT_SET_NO":999,"REV_AT_EPOCH":1583,"BSTAR":0.00018307,"MEAN_MOTION_DOT":0.00003744,"MEAN_MOTION_DDOT":0},{"OBJECT_NAME":"NUSAT-54 (BRANCA MARQUES)","OBJECT_ID":"2026-067AC","EPOCH":"2026-07-12T19:41:10.355136","CLASSIFICATION_TYPE":"U","MEAN_MOTION":15.17983479,"ECCENTRICITY":0.0004065,"INCLINATION":97.4551,"RA_OF_ASC_NODE":151.818,"ARG_OF_PERICENTER":8.3785,"MEAN_ANOMALY":351.7516,"EPHEMERIS_TYPE":0,"NORAD_CAT_ID":68442,"ELEMENT_SET_NO":999,"REV_AT_EPOCH":1582,"BSTAR":0.00017043,"MEAN_MOTION_DOT":0.00003396,"MEAN_MOTION_DDOT":0}]}
