NUSAT-47                
1 66743U 25276CF  26193.76555581  .00003717  00000+0  17287-3 0  9996
2 66743  97.4188 266.9693 0000216 225.9765 134.1452 15.20569288 34318
NUSAT-53 (JANE GOODALL) 
1 68432U 26067S   26193.82996771  .00003744  00000+0  18307-3 0  9993
2 68432  97.4569 151.9809 0000903 356.3986   3.7241 15.18835787 15837
NUSAT-54 (BRANCA MARQU*)
1 68442U 26067AC  26193.82025874  .00003396  00000+0  17043-3 0  9990
2 68442  97.4551 151.8180 0004065   8.3785 351.7516 15.17983479 15825
